{
  "type": "FeatureCollection",
  "features": [
    {
      "type": "Feature",
      "properties": {
        "norad_id": 37238,
        "name": "INTELSAT 17 (IS-17)",
        "group": "intelsat",
        "lat": 0.005943856673405982,
        "lon": 138.79196098207115,
        "alt_km": 35794.71742610336,
        "timestamp": "2025-12-22T22:44:20.618624+00:00",
        "meta_object_name": "INTELSAT 17 (IS-17)",
        "meta_object_id": "2010-065B",
        "meta_epoch": "2025-12-22T13:28:45.118848",
        "meta_mean_motion": 1.00271519,
        "meta_eccentricity": 0.00026093,
        "meta_inclination": 0.009,
        "meta_ra_of_asc_node": 296.0844,
        "meta_arg_of_pericenter": 343.6622,
        "meta_mean_anomaly": 79.7934,
        "meta_ephemeris_type": 0,
        "meta_classification_type": "U",
        "meta_norad_cat_id": 37238,
        "meta_element_set_no": 999,
        "meta_rev_at_epoch": 5147,
        "meta_bstar": 0,
        "meta_mean_motion_dot": 2e-07,
        "meta_mean_motion_ddot": 0,
        "tle_line1": "1 37238U 10065B   25356.56163332  .00000020  00000+0  00000+0 0  9995",
        "tle_line2": "2 37238   0.0090 296.0844 0002609 343.6622  79.7934  1.00271519 51472"
      },
      "geometry": {
        "type": "Point",
        "coordinates": [
          138.79196098207115,
          0.005943856673405982
        ]
      }
    },
    {
      "type": "Feature",
      "properties": {
        "norad_id": 37392,
        "name": "INTELSAT 28 (IS-28)",
        "group": "intelsat",
        "lat": -0.9209531862686361,
        "lon": 41.1531863277547,
        "alt_km": 35796.335936144824,
        "timestamp": "2025-12-22T22:44:20.618636+00:00",
        "meta_object_name": "INTELSAT 28 (IS-28)",
        "meta_object_id": "2011-016A",
        "meta_epoch": "2025-12-22T11:18:11.320704",
        "meta_mean_motion": 1.00269174,
        "meta_eccentricity": 0.00037354,
        "meta_inclination": 1.3482,
        "meta_ra_of_asc_node": 84.951,
        "meta_arg_of_pericenter": 189.9197,
        "meta_mean_anomaly": 314.2415,
        "meta_ephemeris_type": 0,
        "meta_classification_type": "U",
        "meta_norad_cat_id": 37392,
        "meta_element_set_no": 999,
        "meta_rev_at_epoch": 5151,
        "meta_bstar": 0,
        "meta_mean_motion_dot": -2.04e-06,
        "meta_mean_motion_ddot": 0,
        "tle_line1": "1 37392U 11016A   25356.47096436 -.00000204  00000+0  00000+0 0  9998",
        "tle_line2": "2 37392   1.3482  84.9510 0003735 189.9197 314.2415  1.00269174 51515"
      },
      "geometry": {
        "type": "Point",
        "coordinates": [
          41.1531863277547,
          -0.9209531862686361
        ]
      }
    },
    {
      "type": "Feature",
      "properties": {
        "norad_id": 37834,
        "name": "INTELSAT 18 (IS-18)",
        "group": "intelsat",
        "lat": -0.027970632653310176,
        "lon": -107.19033090311574,
        "alt_km": 35780.07629073243,
        "timestamp": "2025-12-22T22:44:20.618648+00:00",
        "meta_object_name": "INTELSAT 18 (IS-18)",
        "meta_object_id": "2011-056A",
        "meta_epoch": "2025-12-22T14:10:38.818848",
        "meta_mean_motion": 1.00271327,
        "meta_eccentricity": 0.00017203,
        "meta_inclination": 0.0283,
        "meta_ra_of_asc_node": 283.3564,
        "meta_arg_of_pericenter": 2.5315,
        "meta_mean_anomaly": 198.1643,
        "meta_ephemeris_type": 0,
        "meta_classification_type": "U",
        "meta_norad_cat_id": 37834,
        "meta_element_set_no": 999,
        "meta_rev_at_epoch": 5204,
        "meta_bstar": 0,
        "meta_mean_motion_dot": 7.4e-07,
        "meta_mean_motion_ddot": 0,
        "tle_line1": "1 37834U 11056A   25356.59072707  .00000074  00000+0  00000+0 0  9995",
        "tle_line2": "2 37834   0.0283 283.3564 0001720   2.5315 198.1643  1.00271327 52043"
      },
      "geometry": {
        "type": "Point",
        "coordinates": [
          -107.19033090311574,
          -0.027970632653310176
        ]
      }
    },
    {
      "type": "Feature",
      "properties": {
        "norad_id": 38098,
        "name": "INTELSAT 22 (IS-22)",
        "group": "intelsat",
        "lat": 0.016179054482852083,
        "lon": 144.90419076644343,
        "alt_km": 35792.221980040515,
        "timestamp": "2025-12-22T22:44:20.618661+00:00",
        "meta_object_name": "INTELSAT 22 (IS-22)",
        "meta_object_id": "2012-011A",
        "meta_epoch": "2025-12-22T13:30:29.952288",
        "meta_mean_motion": 1.00271151,
        "meta_eccentricity": 0.00017608,
        "meta_inclination": 0.0052,
        "meta_ra_of_asc_node": 351.1264,
        "meta_arg_of_pericenter": 297.1171,
        "meta_mean_anomaly": 77.8405,
        "meta_ephemeris_type": 0,
        "meta_classification_type": "U",
        "meta_norad_cat_id": 38098,
        "meta_element_set_no": 999,
        "meta_rev_at_epoch": 541,
        "meta_bstar": 0,
        "meta_mean_motion_dot": -3.7e-07,
        "meta_mean_motion_ddot": 0,
        "tle_line1": "1 38098U 12011A   25356.56284667 -.00000037  00000+0  00000+0 0  9997",
        "tle_line2": "2 38098   0.0052 351.1264 0001760 297.1171  77.8405  1.00271151  5410"
      },
      "geometry": {
        "type": "Point",
        "coordinates": [
          144.90419076644343,
          0.016179054482852083
        ]
      }
    },
    {
      "type": "Feature",
      "properties": {
        "norad_id": 38356,
        "name": "INTELSAT 19 (IS-19)",
        "group": "intelsat",
        "lat": -0.03230249311625774,
        "lon": -121.19007304709,
        "alt_km": 35775.48066181274,
        "timestamp": "2025-12-22T22:44:20.618673+00:00",
        "meta_object_name": "INTELSAT 19 (IS-19)",
        "meta_object_id": "2012-030A",
        "meta_epoch": "2025-12-22T12:14:29.729184",
        "meta_mean_motion": 1.00272136,
        "meta_eccentricity": 0.00028333,
        "meta_inclination": 0.0186,
        "meta_ra_of_asc_node": 312.8711,
        "meta_arg_of_pericenter": 314.85,
        "meta_mean_anomaly": 173.2179,
        "meta_ephemeris_type": 0,
        "meta_classification_type": "U",
        "meta_norad_cat_id": 38356,
        "meta_element_set_no": 999,
        "meta_rev_at_epoch": 4868,
        "meta_bstar": 0,
        "meta_mean_motion_dot": -3.5e-07,
        "meta_mean_motion_ddot": 0,
        "tle_line1": "1 38356U 12030A   25356.51006631 -.00000035  00000+0  00000+0 0  9991",
        "tle_line2": "2 38356   0.0186 312.8711 0002833 314.8500 173.2179  1.00272136 48680"
      },
      "geometry": {
        "type": "Point",
        "coordinates": [
          -121.19007304709,
          -0.03230249311625774
        ]
      }
    },
    {
      "type": "Feature",
      "properties": {
        "norad_id": 38740,
        "name": "INTELSAT 20 (IS-20)",
        "group": "intelsat",
        "lat": 0.026538881851025594,
        "lon": 141.28365702854174,
        "alt_km": 35775.33328253107,
        "timestamp": "2025-12-22T22:44:20.618685+00:00",
        "meta_object_name": "INTELSAT 20 (IS-20)",
        "meta_object_id": "2012-043A",
        "meta_epoch": "2025-12-22T13:29:30.047712",
        "meta_mean_motion": 1.00271448,
        "meta_eccentricity": 0.00034309,
        "meta_inclination": 0.0102,
        "meta_ra_of_asc_node": 54.1338,
        "meta_arg_of_pericenter": 128.3433,
        "meta_mean_anomaly": 179.7492,
        "meta_ephemeris_type": 0,
        "meta_classification_type": "U",
        "meta_norad_cat_id": 38740,
        "meta_element_set_no": 999,
        "meta_rev_at_epoch": 4897,
        "meta_bstar": 0,
        "meta_mean_motion_dot": -3e-08,
        "meta_mean_motion_ddot": 0,
        "tle_line1": "1 38740U 12043A   25356.56215333 -.00000003  00000+0  00000+0 0  9993",
        "tle_line2": "2 38740   0.0102  54.1338 0003430 128.3433 179.7492  1.00271448 48979"
      },
      "geometry": {
        "type": "Point",
        "coordinates": [
          141.28365702854174,
          0.026538881851025594
        ]
      }
    },
    {
      "type": "Feature",
      "properties": {
        "norad_id": 38749,
        "name": "INTELSAT 21 (IS-21)",
        "group": "intelsat",
        "lat": 0.019150083852016365,
        "lon": 14.841525976094143,
        "alt_km": 35788.42717493936,
        "timestamp": "2025-12-22T22:44:20.618697+00:00",
        "meta_object_name": "INTELSAT 21 (IS-21)",
        "meta_object_id": "2012-045A",
        "meta_epoch": "2025-12-22T11:10:42.038112",
        "meta_mean_motion": 1.00271377,
        "meta_eccentricity": 0.00015424,
        "meta_inclination": 0.0199,
        "meta_ra_of_asc_node": 296.3532,
        "meta_arg_of_pericenter": 328.9241,
        "meta_mean_anomaly": 295.6698,
        "meta_ephemeris_type": 0,
        "meta_classification_type": "U",
        "meta_norad_cat_id": 38749,
        "meta_element_set_no": 999,
        "meta_rev_at_epoch": 4875,
        "meta_bstar": 0,
        "meta_mean_motion_dot": -2.63e-06,
        "meta_mean_motion_ddot": 0,
        "tle_line1": "1 38749U 12045A   25356.46576433 -.00000263  00000+0  00000+0 0  9992",
        "tle_line2": "2 38749   0.0199 296.3532 0001542 328.9241 295.6698  1.00271377 48750"
      },
      "geometry": {
        "type": "Point",
        "coordinates": [
          14.841525976094143,
          0.019150083852016365
        ]
      }
    }
  ]
}